NORAD_CAT_ID,OBJECT_NAME,OBJECT_TYPE,EPOCH,MEAN_MOTION,ECCENTRICITY,INCLINATION,RA_OF_ASC_NODE,ARG_OF_PERICENTER,MEAN_ANOMALY,BSTAR,MEAN_MOTION_DOT,MEAN_MOTION_DDOT,TLE_LINE0,TLE_LINE1,TLE_LINE2,SEMIMAJOR_AXIS,PERIOD,APOGEE,PERIGEE,DECAYED
53633.0,STARLINK-4593,PAYLOAD,2023-04-19 17:48:04,15.08848492,7.63e-05,53.2149,279.9934,79.0896,281.0182,1.199e-05,-9.7e-07,0.0,0 STARLINK-4593,1 53633U 22104AX  23109.74172380 -.00000097  00000-0  11990-4 0  9997,2 53633  53.2149 279.9934 0000763  79.0896 281.0182 15.08848492 36633,6917.854,95.437,540.247,539.192,0.0
53633.0,STARLINK-4593,PAYLOAD,2023-04-20 04:55:46,15.0885114,8.46e-05,53.2147,277.9105,80.603,279.5058,2.0898e-05,4.5e-07,0.0,0 STARLINK-4593,1 53633U 22104AX  23110.20539945  .00000045  00000-0  20898-4 0  9993,2 53633  53.2147 277.9105 0000846  80.6030 279.5058 15.08851140 36705,6917.846,95.437,540.297,539.126,0.0
53633.0,STARLINK-4593,PAYLOAD,2023-04-20 16:03:29,15.08836908,0.0001275,53.2168,275.83,65.0333,295.0791,3.0136e-05,1.92e-06,0.0,0 STARLINK-4593,1 53633U 22104AX  23110.66909024  .00000192  00000-0  30136-4 0  9991,2 53633  53.2168 275.8300 0001275  65.0333 295.0791 15.08836908 36771,6917.89,95.438,540.637,538.873,0.0
53633.0,STARLINK-4593,PAYLOAD,2023-04-20 22:25:00,15.08853573,8.15e-05,53.2169,274.6371,87.1198,272.9887,6.9104e-05,8.13e-06,0.0,0 STARLINK-4593,1 53633U 22104AX  23110.93403536  .00000813  00000-0  69104-4 0  9995,2 53633  53.2169 274.6371 0000815  87.1198 272.9887 15.08853573 36812,6917.839,95.437,540.268,539.14,0.0
53633.0,STARLINK-4593,PAYLOAD,2023-04-21 20:40:24,15.08850004,0.0001033,53.2152,270.4748,91.6488,268.4623,6.8708e-05,8.06e-06,0.0,0 STARLINK-4593,1 53633U 22104AX  23111.86139845  .00000806  00000-0  68708-4 0  9998,2 53633  53.2152 270.4748 0001033  91.6488 268.4623 15.08850004 36950,6917.85,95.437,540.429,539.0,0.0
53633.0,STARLINK-4593,PAYLOAD,2023-04-22 12:34:17,15.08828182,7.27e-05,53.2161,267.5029,60.3386,299.7679,4.9027e-05,4.92e-06,0.0,0 STARLINK-4593,1 53633U 22104AX  23112.52381210  .00000492  00000-0  49027-4 0  9991,2 53633  53.2161 267.5029 0000727  60.3386 299.7679 15.08828182 37050,6917.917,95.438,540.284,539.279,0.0
53633.0,STARLINK-4593,PAYLOAD,2023-04-22 18:55:49,15.08847007,7.9e-05,53.2162,266.3119,83.8455,276.2627,-3.2427e-05,-8.04e-06,0.0,0 STARLINK-4593,1 53633U 22104AX  23112.78876325 -.00000804  00000-0 -32427-4 0  9990,2 53633  53.2162 266.3119 0000790  83.8455 276.2627 15.08847007 36403,6917.859,95.437,540.27,539.177,0.0
53633.0,STARLINK-4593,PAYLOAD,2023-04-23 12:25:05,15.08827714,7.09e-05,53.2155,263.0404,74.0927,286.0144,-0.00011803,-2.165e-05,0.0,0 STARLINK-4593,1 53633U 22104AX  23113.51742416 -.00002165  00000-0 -11803-3 0  9991,2 53633  53.2155 263.0404 0000709  74.0927 286.0144 15.08827714 36510,6917.918,95.438,540.273,539.292,0.0
53633.0,STARLINK-4593,PAYLOAD,2023-04-23 20:22:00,15.08836464,0.0001041,53.2165,261.5556,92.7289,267.3823,-1.2963e-05,-4.94e-06,0.0,0 STARLINK-4593,1 53633U 22104AX  23113.84861724 -.00000494  00000-0 -12963-4 0  9993,2 53633  53.2165 261.5556 0001041  92.7289 267.3823 15.08836464 37250,6917.891,95.438,540.476,539.036,0.0
53633.0,STARLINK-4593,PAYLOAD,2023-04-24 02:43:32,15.088479,9.81e-05,53.2161,260.3646,90.4973,269.6131,-1.7612e-05,-5.68e-06,0.0,0 STARLINK-4593,1 53633U 22104AX  23114.11356980 -.00000568  00000-0 -17612-4 0  9995,2 53633  53.2161 260.3646 0000981  90.4973 269.6131 15.08847900 36602,6917.856,95.437,540.4,539.043,0.0
53633.0,STARLINK-4593,PAYLOAD,2023-04-25 08:55:54,15.08800612,6.55e-05,53.2174,254.7153,108.8189,251.2874,-0.00021593,-3.719e-05,0.0,0 STARLINK-4593,1 53633U 22104AX  23115.37215549 -.00003719  00000-0 -21593-3 0  9992,2 53633  53.2174 254.7153 0000655 108.8189 251.2874 15.08800612 37484,6918.001,95.44,540.319,539.413,0.0
53633.0,STARLINK-4593,PAYLOAD,2023-04-26 11:57:26,15.08840152,5.41e-05,53.2166,249.6619,87.5791,272.5263,-0.00025463,-4.338e-05,0.0,0 STARLINK-4593,1 53633U 22104AX  23116.49822736 -.00004338  00000-0 -25463-3 0  9996,2 53633  53.2166 249.6619 0000541  87.5791 272.5263 15.08840152 37651,6917.88,95.438,540.119,539.371,0.0
53633.0,STARLINK-4593,PAYLOAD,2023-04-26 18:18:58,15.08899516,0.0001012,53.216,248.4696,84.6191,275.4916,-0.00084367,-0.00013711,0.0,0 STARLINK-4593,1 53633U 22104AX  23116.76317776 -.00013711  00000-0 -84367-3 0  9992,2 53633  53.2160 248.4696 0001012  84.6191 275.4916 15.08899516 37692,6917.698,95.434,540.264,538.863,0.0
53633.0,STARLINK-4593,PAYLOAD,2023-04-27 11:48:13,15.08831517,8.6e-05,53.2163,245.1995,109.5947,250.5138,0.00039418,5.99e-05,0.0,0 STARLINK-4593,1 53633U 22104AX  23117.49181833  .00005990  00000-0  39418-3 0  9991,2 53633  53.2163 245.1995 0000860 109.5947 250.5138 15.08831517 37807,6917.906,95.438,540.366,539.176,0.0
53633.0,STARLINK-4593,PAYLOAD,2023-04-27 18:09:44,15.08849631,8.59e-05,53.2172,244.0097,107.1083,253.0003,0.00045875,7.023e-05,0.0,0 STARLINK-4593,1 53633U 22104AX  23117.75676842  .00007023  00000-0  45875-3 0  9992,2 53633  53.2172 244.0097 0000859 107.1083 253.0003 15.08849631 37154,6917.851,95.437,540.31,539.122,0.0
53633.0,STARLINK-4593,PAYLOAD,2023-04-28 11:39:00,15.08840345,9.31e-05,53.2172,240.7382,112.2444,247.8647,0.00018656,2.683e-05,0.0,0 STARLINK-4593,1 53633U 22104AX  23118.48542473  .00002683  00000-0  18656-3 0  9999,2 53633  53.2172 240.7382 0000931 112.2444 247.8647 15.08840345 37263,6917.879,95.438,540.388,539.1,0.0
53633.0,STARLINK-4593,PAYLOAD,2023-04-28 18:00:32,15.08850802,8.7e-05,53.2143,239.5491,81.8413,278.2678,0.00016126,2.28e-05,0.0,0 STARLINK-4593,1 53633U 22104AX  23118.75037960  .00002280  00000-0  16126-3 0  9992,2 53633  53.2143 239.5491 0000870  81.8413 278.2678 15.08850802 37303,6917.847,95.437,540.314,539.111,0.0
53633.0,STARLINK-4593,PAYLOAD,2023-04-29 11:29:47,15.08845488,8.79e-05,53.2153,236.2783,82.5017,277.6075,-0.00017184,-3.022e-05,0.0,0 STARLINK-4593,1 53633U 22104AX  23119.47901750 -.00003022  00000-0 -17184-3 0  9991,2 53633  53.2153 236.2783 0000879  82.5017 277.6075 15.08845488 37419,6917.864,95.437,540.337,539.121,0.0
53633.0,STARLINK-4593,PAYLOAD,2023-04-29 19:26:42,15.08853861,0.0001057,53.2148,234.792,81.511,278.6002,1.6347e-05,-2.8e-07,0.0,0 STARLINK-4593,1 53633U 22104AX  23119.81021206 -.00000028  00000-0  16347-4 0  9991,2 53633  53.2148 234.7920 0001057  81.5110 278.6002 15.08853861 37461,6917.838,95.437,540.434,538.972,0.0
53633.0,STARLINK-4593,PAYLOAD,2023-04-30 12:55:57,15.08834799,0.0001032,53.2148,231.5201,89.5987,270.5124,-5.6771e-05,-1.191e-05,0.0,0 STARLINK-4593,1 53633U 22104AX  23120.53886477 -.00001191  00000-0 -56771-4 0  9999,2 53633  53.2148 231.5201 0001032  89.5987 270.5124 15.08834799 37578,6917.896,95.438,540.475,539.047,0.0
53633.0,STARLINK-4593,PAYLOAD,2023-05-01 12:46:44,15.08847236,0.0001156,53.2153,227.0586,103.3203,256.7918,0.00027917,4.159e-05,0.0,0 STARLINK-4593,1 53633U 22104AX  23121.53246236  .00004159  00000-0  27917-3 0  9997,2 53633  53.2153 227.0586 0001156 103.3203 256.7918 15.08847236 37727,6917.858,95.437,540.523,538.924,0.0
53633.0,STARLINK-4593,PAYLOAD,2023-05-01 15:57:30,15.08852916,0.0001123,53.2154,226.464,102.1896,257.9222,0.00057946,8.949e-05,0.0,0 STARLINK-4593,1 53633U 22104AX  23121.66494185  .00008949  00000-0  57946-3 0  9995,2 53633  53.2154 226.4640 0001123 102.1896 257.9222 15.08852916 38432,6917.841,95.437,540.483,538.929,0.0
53633.0,STARLINK-4593,PAYLOAD,2023-05-02 12:37:31,15.08852837,0.000108,53.2164,222.5996,93.4931,266.6185,0.00029078,4.345e-05,0.0,0 STARLINK-4593,1 53633U 22104AX  23122.52605792  .00004345  00000-0  29078-3 0  9990,2 53633  53.2164 222.5996 0001080  93.4931 266.6185 15.08852837 38569,6917.841,95.437,540.453,538.959,0.0
53633.0,STARLINK-4593,PAYLOAD,2023-05-02 15:48:17,15.0886042,0.0001018,53.2156,222.0041,92.2581,267.8528,0.00044032,6.731e-05,0.0,0 STARLINK-4593,1 53633U 22104AX  23122.65853451  .00006731  00000-0  44032-3 0  9999,2 53633  53.2156 222.0041 0001018  92.2581 267.8528 15.08860420 37891,6917.818,95.436,540.387,538.979,0.0
53633.0,STARLINK-4593,PAYLOAD,2023-05-02 23:45:13,15.0884389,0.0001103,53.2164,220.5177,90.3759,269.7359,3.6841e-05,2.99e-06,0.0,0 STARLINK-4593,1 53633U 22104AX  23122.98973877  .00000299  00000-0  36841-4 0  9993,2 53633  53.2164 220.5177 0001103  90.3759 269.7359 15.08843890 37945,6917.868,95.437,540.497,538.97,0.0
53633.0,STARLINK-4593,PAYLOAD,2023-05-03 12:28:18,15.08835321,0.0001009,53.2154,218.138,92.1929,267.9179,-0.00011943,-2.188e-05,0.0,0 STARLINK-4593,1 53633U 22104AX  23123.51966270 -.00002188  00000-0 -11943-3 0  9998,2 53633  53.2154 218.1380 0001009  92.1929 267.9179 15.08835321 38027,6917.895,95.438,540.458,539.062,0.0
53633.0,STARLINK-4593,PAYLOAD,2023-05-03 14:03:42,15.08838674,0.0001014,53.2154,217.8397,96.2711,263.8397,-5.0277e-05,-1.088e-05,0.0,0 STARLINK-4593,1 53633U 22104AX  23123.58590291 -.00001088  00000-0 -50277-4 0  9993,2 53633  53.2154 217.8397 0001014  96.2711 263.8397 15.08838674 38729,6917.884,95.438,540.451,539.048,0.0
53633.0,STARLINK-4593,PAYLOAD,2023-05-03 15:39:05,15.08840626,0.0001047,53.2157,217.5422,95.3113,264.7999,-1.5386e-05,-5.33e-06,0.0,0 STARLINK-4593,1 53633U 22104AX  23123.65214209 -.00000533  00000-0 -15386-4 0  9999,2 53633  53.2157 217.5422 0001047  95.3113 264.7999 15.08840626 38739,6917.878,95.438,540.468,539.019,0.0
53633.0,STARLINK-4593,PAYLOAD,2023-05-04 12:19:05,15.08849899,9.9e-05,53.2158,213.6752,101.3968,258.7135,0.00010879,1.444e-05,0.0,0 STARLINK-4593,1 53633U 22104AX  23124.51325837  .00001444  00000-0  10879-3 0  9996,2 53633  53.2158 213.6752 0000990 101.3968 258.7135 15.08849899 38179,6917.85,95.437,540.4,539.03,0.0
53633.0,STARLINK-4593,PAYLOAD,2023-05-05 05:48:21,15.0882779,0.0001102,53.2151,210.4062,97.6417,262.47,0.00029091,4.344e-05,0.0,0 STARLINK-4593,1 53633U 22104AX  23125.24191197  .00004344  00000-0  29091-3 0  9995,2 53633  53.2151 210.4062 0001102  97.6417 262.4700 15.08827790 38281,6917.918,95.438,540.545,539.02,0.0
